{
  "type": "FeatureCollection",
  "features": [
    {
      "type": "Feature",
      "properties": {
        "norad_id": 31165,
        "name": "FENGYUN 1C DEB",
        "group": "fengyun-1c-debris",
        "lat": -23.689993114705317,
        "lon": -140.16686942849046,
        "alt_km": 625.3569864559804,
        "timestamp": "2025-12-10T04:57:29.899040+00:00",
        "meta_object_name": "FENGYUN 1C DEB",
        "meta_object_id": "1999-025BHT",
        "meta_epoch": "2025-12-09T10:10:32.278080",
        "meta_mean_motion": 14.70967766,
        "meta_eccentricity": 0.00692536,
        "meta_inclination": 98.885,
        "meta_ra_of_asc_node": 42.9159,
        "meta_arg_of_pericenter": 245.2255,
        "meta_mean_anomaly": 137.2572,
        "meta_ephemeris_type": 0,
        "meta_classification_type": "U",
        "meta_norad_cat_id": 31165,
        "meta_element_set_no": 999,
        "meta_rev_at_epoch": 98706,
        "meta_bstar": 0.0017105562,
        "meta_mean_motion_dot": 0.00010837,
        "meta_mean_motion_ddot": 0,
        "tle_line1": "1 31165U 99025BHT 25343.42398470  .00010837  00000+0  17106-2 0  9990",
        "tle_line2": "2 31165  98.8850  42.9159 0069253 245.2255 137.2572 14.70967766987066"
      },
      "geometry": {
        "type": "Point",
        "coordinates": [
          -140.16686942849046,
          -23.689993114705317
        ]
      }
    },
    {
      "type": "Feature",
      "properties": {
        "norad_id": 31168,
        "name": "FENGYUN 1C DEB",
        "group": "fengyun-1c-debris",
        "lat": 34.67299461332396,
        "lon": -58.54442007518351,
        "alt_km": 644.6289180948843,
        "timestamp": "2025-12-10T04:57:29.899050+00:00",
        "meta_object_name": "FENGYUN 1C DEB",
        "meta_object_id": "1999-025BHW",
        "meta_epoch": "2025-12-09T15:13:07.655232",
        "meta_mean_motion": 14.67306831,
        "meta_eccentricity": 0.0108796,
        "meta_inclination": 98.8909,
        "meta_ra_of_asc_node": 114.6185,
        "meta_arg_of_pericenter": 73.1688,
        "meta_mean_anomaly": 288.1413,
        "meta_ephemeris_type": 0,
        "meta_classification_type": "U",
        "meta_norad_cat_id": 31168,
        "meta_element_set_no": 999,
        "meta_rev_at_epoch": 99075,
        "meta_bstar": 0.001048,
        "meta_mean_motion_dot": 6.406e-05,
        "meta_mean_motion_ddot": 0,
        "tle_line1": "1 31168U 99025BHW 25343.63411638  .00006406  00000+0  10480-2 0  9993",
        "tle_line2": "2 31168  98.8909 114.6185 0108796  73.1688 288.1413 14.67306831990750"
      },
      "geometry": {
        "type": "Point",
        "coordinates": [
          -58.54442007518351,
          34.67299461332396
        ]
      }
    },
    {
      "type": "Feature",
      "properties": {
        "norad_id": 31169,
        "name": "FENGYUN 1C DEB",
        "group": "fengyun-1c-debris",
        "lat": 14.022585591113938,
        "lon": 8.21386502102671,
        "alt_km": 763.9454964077959,
        "timestamp": "2025-12-10T04:57:29.899060+00:00",
        "meta_object_name": "FENGYUN 1C DEB",
        "meta_object_id": "1999-025BHX",
        "meta_epoch": "2025-12-07T14:36:12.590784",
        "meta_mean_motion": 14.26378053,
        "meta_eccentricity": 0.00576294,
        "meta_inclination": 99.1571,
        "meta_ra_of_asc_node": 7.8072,
        "meta_arg_of_pericenter": 32.3449,
        "meta_mean_anomaly": 328.1242,
        "meta_ephemeris_type": 0,
        "meta_classification_type": "U",
        "meta_norad_cat_id": 31169,
        "meta_element_set_no": 999,
        "meta_rev_at_epoch": 57031,
        "meta_bstar": 0.0034039126,
        "meta_mean_motion_dot": 8.288e-05,
        "meta_mean_motion_ddot": 0,
        "tle_line1": "1 31169U 99025BHX 25341.60847906  .00008288  00000+0  34039-2 0  9996",
        "tle_line2": "2 31169  99.1571   7.8072 0057629  32.3449 328.1242 14.26378053570319"
      },
      "geometry": {
        "type": "Point",
        "coordinates": [
          8.21386502102671,
          14.022585591113938
        ]
      }
    },
    {
      "type": "Feature",
      "properties": {
        "norad_id": 31171,
        "name": "FENGYUN 1C DEB",
        "group": "fengyun-1c-debris",
        "lat": 33.752557720526426,
        "lon": -31.34552139346818,
        "alt_km": 734.4959019662783,
        "timestamp": "2025-12-10T04:57:29.899072+00:00",
        "meta_object_name": "FENGYUN 1C DEB",
        "meta_object_id": "1999-025BHZ",
        "meta_epoch": "2025-12-09T11:07:44.503392",
        "meta_mean_motion": 14.34659859,
        "meta_eccentricity": 0.01547818,
        "meta_inclination": 98.0157,
        "meta_ra_of_asc_node": 333.3678,
        "meta_arg_of_pericenter": 326.4918,
        "meta_mean_anomaly": 191.4185,
        "meta_ephemeris_type": 0,
        "meta_classification_type": "U",
        "meta_norad_cat_id": 31171,
        "meta_element_set_no": 999,
        "meta_rev_at_epoch": 95783,
        "meta_bstar": 0.0076074575,
        "meta_mean_motion_dot": 0.00024668,
        "meta_mean_motion_ddot": 0,
        "tle_line1": "1 31171U 99025BHZ 25343.46370953  .00024668  00000+0  76075-2 0  9994",
        "tle_line2": "2 31171  98.0157 333.3678 0154781 326.4918 191.4185 14.34659859957832"
      },
      "geometry": {
        "type": "Point",
        "coordinates": [
          -31.34552139346818,
          33.752557720526426
        ]
      }
    },
    {
      "type": "Feature",
      "properties": {
        "norad_id": 31172,
        "name": "FENGYUN 1C DEB",
        "group": "fengyun-1c-debris",
        "lat": -38.34697564200301,
        "lon": -4.51179518346923,
        "alt_km": 717.4337195368216,
        "timestamp": "2025-12-10T04:57:29.899082+00:00",
        "meta_object_name": "FENGYUN 1C DEB",
        "meta_object_id": "1999-025BJA",
        "meta_epoch": "2025-12-08T17:54:33.693984",
        "meta_mean_motion": 14.31507738,
        "meta_eccentricity": 0.01481093,
        "meta_inclination": 98.4249,
        "meta_ra_of_asc_node": 347.3377,
        "meta_arg_of_pericenter": 280.4418,
        "meta_mean_anomaly": 78.0104,
        "meta_ephemeris_type": 0,
        "meta_classification_type": "U",
        "meta_norad_cat_id": 31172,
        "meta_element_set_no": 999,
        "meta_rev_at_epoch": 97569,
        "meta_bstar": 0.00031828314,
        "meta_mean_motion_dot": 9.07e-06,
        "meta_mean_motion_ddot": 0,
        "tle_line1": "1 31172U 99025BJA 25342.74622331  .00000907  00000+0  31828-3 0  9993",
        "tle_line2": "2 31172  98.4249 347.3377 0148109 280.4418  78.0104 14.31507738975691"
      },
      "geometry": {
        "type": "Point",
        "coordinates": [
          -4.51179518346923,
          -38.34697564200301
        ]
      }
    },
    {
      "type": "Feature",
      "properties": {
        "norad_id": 31175,
        "name": "FENGYUN 1C DEB",
        "group": "fengyun-1c-debris",
        "lat": -36.44821064398761,
        "lon": -9.368002545909437,
        "alt_km": 744.890143003091,
        "timestamp": "2025-12-10T04:57:29.899092+00:00",
        "meta_object_name": "FENGYUN 1C DEB",
        "meta_object_id": "1999-025BJD",
        "meta_epoch": "2025-12-09T04:27:17.098848",
        "meta_mean_motion": 14.59831692,
        "meta_eccentricity": 0.0074003,
        "meta_inclination": 98.406,
        "meta_ra_of_asc_node": 343.3274,
        "meta_arg_of_pericenter": 176.774,
        "meta_mean_anomaly": 183.3952,
        "meta_ephemeris_type": 0,
        "meta_classification_type": "U",
        "meta_norad_cat_id": 31175,
        "meta_element_set_no": 999,
        "meta_rev_at_epoch": 65587,
        "meta_bstar": 0.0051551625,
        "meta_mean_motion_dot": 0.00025647,
        "meta_mean_motion_ddot": 0,
        "tle_line1": "1 31175U 99025BJD 25343.18561457  .00025647  00000+0  51552-2 0  9999",
        "tle_line2": "2 31175  98.4060 343.3274 0074003 176.7740 183.3952 14.59831692655878"
      },
      "geometry": {
        "type": "Point",
        "coordinates": [
          -9.368002545909437,
          -36.44821064398761
        ]
      }
    },
    {
      "type": "Feature",
      "properties": {
        "norad_id": 31177,
        "name": "FENGYUN 1C DEB",
        "group": "fengyun-1c-debris",
        "lat": 60.35159072961342,
        "lon": 93.61086520615393,
        "alt_km": 1233.695891703088,
        "timestamp": "2025-12-10T04:57:29.899102+00:00",
        "meta_object_name": "FENGYUN 1C DEB",
        "meta_object_id": "1999-025BJF",
        "meta_epoch": "2025-12-08T17:24:07.966080",
        "meta_mean_motion": 13.622528,
        "meta_eccentricity": 0.0310599,
        "meta_inclination": 98.7576,
        "meta_ra_of_asc_node": 256.5653,
        "meta_arg_of_pericenter": 324.298,
        "meta_mean_anomaly": 91.0785,
        "meta_ephemeris_type": 0,
        "meta_classification_type": "U",
        "meta_norad_cat_id": 31177,
        "meta_element_set_no": 999,
        "meta_rev_at_epoch": 66157,
        "meta_bstar": 0.0076571,
        "meta_mean_motion_dot": 8.152e-05,
        "meta_mean_motion_ddot": 0,
        "tle_line1": "1 31177U 99025BJF 25342.72509220  .00008152  00000+0  76571-2 0  9990",
        "tle_line2": "2 31177  98.7576 256.5653 0310599 324.2980  91.0785 13.62252800661574"
      },
      "geometry": {
        "type": "Point",
        "coordinates": [
          93.61086520615393,
          60.35159072961342
        ]
      }
    }
  ]
}